{
    "type": "FeatureCollection",
    "features": [
        {
            "type": "Feature",
            "properties": {},
            "geometry": {
                "type": "Polygon",
                "coordinates": [
                    [
                        [
                            80.179231,
                            13.033198
                        ],
                        [
                            80.179224,
                            13.032928
                        ],
                        [
                            80.179623,
                            13.032915
                        ],
                        [
                            80.179628,
                            13.033194
                        ],
                        [
                            80.179231,
                            13.033198
                        ]
                    ]
                ]
            }
        }
    ]
}