{
    "type": "FeatureCollection",
    "features": [
        {
            "type": "Feature",
            "properties": {},
            "geometry": {
                "type": "Polygon",
                "coordinates": [
                    [
                        [
                            80.178832,
                            13.033156
                        ],
                        [
                            80.17883,
                            13.032991
                        ],
                        [
                            80.179195,
                            13.032974
                        ],
                        [
                            80.179201,
                            13.033111
                        ],
                        [
                            80.179009,
                            13.033123
                        ],
                        [
                            80.179008,
                            13.033152
                        ],
                        [
                            80.178832,
                            13.033156
                        ]
                    ]
                ]
            }
        }
    ]
}