{
    "type": "FeatureCollection",
    "features": [
        {
            "type": "Feature",
            "properties": {},
            "geometry": {
                "type": "Polygon",
                "coordinates": [
                    [
                        [
                            80.17968,
                            13.033272
                        ],
                        [
                            80.179672,
                            13.032916
                        ],
                        [
                            80.180209,
                            13.032893
                        ],
                        [
                            80.180215,
                            13.033043
                        ],
                        [
                            80.179888,
                            13.03306
                        ],
                        [
                            80.179894,
                            13.033266
                        ],
                        [
                            80.17979,
                            13.033267
                        ],
                        [
                            80.17968,
                            13.033272
                        ]
                    ]
                ]
            }
        }
    ]
}