{
    "type": "FeatureCollection",
    "features": [
        {
            "type": "Feature",
            "properties": {},
            "geometry": {
                "type": "Polygon",
                "coordinates": [
                    [
                        [
                            80.179852,
                            13.032809
                        ],
                        [
                            80.179848,
                            13.032675
                        ],
                        [
                            80.180133,
                            13.032675
                        ],
                        [
                            80.18013,
                            13.032637
                        ],
                        [
                            80.180415,
                            13.032632
                        ],
                        [
                            80.180418,
                            13.032809
                        ],
                        [
                            80.180293,
                            13.032809
                        ],
                        [
                            80.179852,
                            13.032809
                        ]
                    ]
                ]
            }
        }
    ]
}