{
    "type": "FeatureCollection",
    "features": [
        {
            "type": "Feature",
            "properties": {},
            "geometry": {
                "type": "Polygon",
                "coordinates": [
                    [
                        [
                            80.179883,
                            13.032015
                        ],
                        [
                            80.180264,
                            13.03202
                        ],
                        [
                            80.180261,
                            13.032176
                        ],
                        [
                            80.18043,
                            13.032184
                        ],
                        [
                            80.18043,
                            13.03254
                        ],
                        [
                            80.180112,
                            13.032532
                        ],
                        [
                            80.180112,
                            13.03238
                        ],
                        [
                            80.179877,
                            13.032375
                        ],
                        [
                            80.179883,
                            13.032015
                        ]
                    ]
                ]
            }
        }
    ]
}