{
    "type": "FeatureCollection",
    "features": [
        {
            "type": "Feature",
            "properties": {},
            "geometry": {
                "type": "Polygon",
                "coordinates": [
                    [
                        [
                            80.178302,
                            13.032905
                        ],
                        [
                            80.178405,
                            13.032881
                        ],
                        [
                            80.178468,
                            13.033221
                        ],
                        [
                            80.178367,
                            13.033243
                        ],
                        [
                            80.178388,
                            13.033351
                        ],
                        [
                            80.178033,
                            13.033414
                        ],
                        [
                            80.178012,
                            13.033302
                        ],
                        [
                            80.177973,
                            13.033312
                        ],
                        [
                            80.177907,
                            13.032977
                        ],
                        [
                            80.177935,
                            13.032973
                        ],
                        [
                            80.177947,
                            13.032968
                        ],
                        [
                            80.177928,
                            13.032855
                        ],
                        [
                            80.178286,
                            13.032797
                        ],
                        [
                            80.178302,
                            13.032905
                        ]
                    ]
                ]
            }
        }
    ]
}