{
    "type": "FeatureCollection",
    "features": [
        {
            "type": "Feature",
            "properties": {},
            "geometry": {
                "type": "Polygon",
                "coordinates": [
                    [
                        [
                            80.17781,
                            13.032332
                        ],
                        [
                            80.177789,
                            13.032198
                        ],
                        [
                            80.178185,
                            13.032134
                        ],
                        [
                            80.178208,
                            13.032263
                        ],
                        [
                            80.178004,
                            13.032301
                        ],
                        [
                            80.17781,
                            13.032332
                        ]
                    ]
                ]
            }
        }
    ]
}