{
    "type": "FeatureCollection",
    "features": [
        {
            "type": "Feature",
            "properties": {},
            "geometry": {
                "type": "Polygon",
                "coordinates": [
                    [
                        [
                            80.179505,
                            13.03193
                        ],
                        [
                            80.179516,
                            13.032016
                        ],
                        [
                            80.179526,
                            13.032094
                        ],
                        [
                            80.179096,
                            13.032156
                        ],
                        [
                            80.179096,
                            13.032198
                        ],
                        [
                            80.178426,
                            13.032287
                        ],
                        [
                            80.178424,
                            13.032244
                        ],
                        [
                            80.178387,
                            13.032249
                        ],
                        [
                            80.178366,
                            13.032116
                        ],
                        [
                            80.178592,
                            13.032087
                        ],
                        [
                            80.178812,
                            13.032063
                        ],
                        [
                            80.178808,
                            13.032039
                        ],
                        [
                            80.178807,
                            13.032018
                        ],
                        [
                            80.179135,
                            13.031975
                        ],
                        [
                            80.179505,
                            13.03193
                        ]
                    ]
                ]
            }
        }
    ]
}