{
    "type": "FeatureCollection",
    "features": [
        {
            "type": "Feature",
            "properties": {},
            "geometry": {
                "type": "Polygon",
                "coordinates": [
                    [
                        [
                            80.177676,
                            13.03273
                        ],
                        [
                            80.177668,
                            13.032724
                        ],
                        [
                            80.177647,
                            13.032713
                        ],
                        [
                            80.177275,
                            13.032738
                        ],
                        [
                            80.177227,
                            13.032789
                        ],
                        [
                            80.177171,
                            13.032743
                        ],
                        [
                            80.177195,
                            13.032709
                        ],
                        [
                            80.177171,
                            13.032458
                        ],
                        [
                            80.177127,
                            13.032435
                        ],
                        [
                            80.177164,
                            13.032373
                        ],
                        [
                            80.177183,
                            13.032382
                        ],
                        [
                            80.177373,
                            13.032368
                        ],
                        [
                            80.177581,
                            13.032352
                        ],
                        [
                            80.177623,
                            13.032319
                        ],
                        [
                            80.177675,
                            13.032365
                        ],
                        [
                            80.177654,
                            13.032392
                        ],
                        [
                            80.177673,
                            13.032637
                        ],
                        [
                            80.177727,
                            13.032677
                        ],
                        [
                            80.177676,
                            13.03273
                        ]
                    ]
                ]
            }
        }
    ]
}