{
    "type": "FeatureCollection",
    "features": [
        {
            "type": "Feature",
            "properties": {},
            "geometry": {
                "type": "Polygon",
                "coordinates": [
                    [
                        [
                            80.179836,
                            13.032617
                        ],
                        [
                            80.179833,
                            13.032433
                        ],
                        [
                            80.180039,
                            13.032421
                        ],
                        [
                            80.180045,
                            13.032608
                        ],
                        [
                            80.179949,
                            13.03261
                        ],
                        [
                            80.179836,
                            13.032617
                        ]
                    ]
                ]
            }
        }
    ]
}