{
    "type": "FeatureCollection",
    "features": [
        {
            "type": "Feature",
            "properties": {},
            "geometry": {
                "type": "Polygon",
                "coordinates": [
                    [
                        [
                            80.17923,
                            13.033199
                        ],
                        [
                            80.179227,
                            13.032929
                        ],
                        [
                            80.179622,
                            13.032917
                        ],
                        [
                            80.179627,
                            13.033192
                        ],
                        [
                            80.17923,
                            13.033199
                        ]
                    ]
                ]
            }
        }
    ]
}