{
    "type": "FeatureCollection",
    "features": [
        {
            "type": "Feature",
            "properties": {},
            "geometry": {
                "type": "LineString",
                "coordinates": [
                    [
                        80.179694,
                        13.031903
                    ],
                    [
                        80.179868,
                        13.031883
                    ],
                    [
                        80.179918,
                        13.031943
                    ],
                    [
                        80.180001,
                        13.032011
                    ]
                ]
            }
        },
        {
            "type": "Feature",
            "properties": {},
            "geometry": {
                "type": "LineString",
                "coordinates": [
                    [
                        80.179861,
                        13.03189
                    ],
                    [
                        80.180058,
                        13.031872
                    ],
                    [
                        80.180296,
                        13.031849
                    ],
                    [
                        80.180388,
                        13.031849
                    ],
                    [
                        80.180427,
                        13.031894
                    ],
                    [
                        80.180438,
                        13.03203
                    ],
                    [
                        80.180442,
                        13.032181
                    ],
                    [
                        80.18045,
                        13.032438
                    ],
                    [
                        80.180442,
                        13.032646
                    ],
                    [
                        80.18044,
                        13.032824
                    ],
                    [
                        80.180176,
                        13.032864
                    ],
                    [
                        80.179871,
                        13.032857
                    ],
                    [
                        80.179718,
                        13.032852
                    ],
                    [
                        80.179391,
                        13.032843
                    ],
                    [
                        80.178933,
                        13.032817
                    ],
                    [
                        80.178772,
                        13.03281
                    ],
                    [
                        80.178584,
                        13.032809
                    ],
                    [
                        80.17849,
                        13.032789
                    ],
                    [
                        80.178382,
                        13.032735
                    ],
                    [
                        80.178285,
                        13.032672
                    ],
                    [
                        80.178237,
                        13.032578
                    ],
                    [
                        80.178209,
                        13.032465
                    ],
                    [
                        80.178197,
                        13.032407
                    ],
                    [
                        80.178149,
                        13.032387
                    ],
                    [
                        80.178029,
                        13.032399
                    ],
                    [
                        80.177929,
                        13.032418
                    ],
                    [
                        80.177841,
                        13.032434
                    ]
                ]
            }
        },
        {
            "type": "Feature",
            "properties": {},
            "geometry": {
                "type": "LineString",
                "coordinates": [
                    [
                        80.179627,
                        13.031688
                    ],
                    [
                        80.179631,
                        13.031805
                    ],
                    [
                        80.179636,
                        13.031913
                    ],
                    [
                        80.179629,
                        13.032038
                    ],
                    [
                        80.179627,
                        13.032198
                    ],
                    [
                        80.179625,
                        13.032379
                    ],
                    [
                        80.179613,
                        13.032578
                    ],
                    [
                        80.179613,
                        13.032719
                    ],
                    [
                        80.179608,
                        13.032844
                    ],
                    [
                        80.179608,
                        13.03286
                    ]
                ]
            }
        },
        {
            "type": "Feature",
            "properties": {},
            "geometry": {
                "type": "LineString",
                "coordinates": [
                    [
                        80.179704,
                        13.032857
                    ],
                    [
                        80.179709,
                        13.032763
                    ],
                    [
                        80.179707,
                        13.032659
                    ],
                    [
                        80.179707,
                        13.032547
                    ],
                    [
                        80.179704,
                        13.032454
                    ],
                    [
                        80.179704,
                        13.03235
                    ],
                    [
                        80.179704,
                        13.032233
                    ],
                    [
                        80.179704,
                        13.032127
                    ],
                    [
                        80.179702,
                        13.03203
                    ],
                    [
                        80.179694,
                        13.031924
                    ],
                    [
                        80.179691,
                        13.031822
                    ],
                    [
                        80.179696,
                        13.031698
                    ]
                ]
            }
        },
        {
            "type": "Feature",
            "properties": {},
            "geometry": {
                "type": "LineString",
                "coordinates": [
                    [
                        80.179703,
                        13.03285
                    ],
                    [
                        80.179707,
                        13.032907
                    ]
                ]
            }
        },
        {
            "type": "Feature",
            "properties": {},
            "geometry": {
                "type": "LineString",
                "coordinates": [
                    [
                        80.179609,
                        13.032853
                    ],
                    [
                        80.179599,
                        13.032916
                    ]
                ]
            }
        },
        {
            "type": "Feature",
            "properties": {},
            "geometry": {
                "type": "LineString",
                "coordinates": [
                    [
                        80.179089,
                        13.032828
                    ],
                    [
                        80.179092,
                        13.032964
                    ]
                ]
            }
        },
        {
            "type": "Feature",
            "properties": {},
            "geometry": {
                "type": "LineString",
                "coordinates": [
                    [
                        80.178411,
                        13.032752
                    ],
                    [
                        80.178347,
                        13.032888
                    ]
                ]
            }
        },
        {
            "type": "Feature",
            "properties": {},
            "geometry": {
                "type": "LineString",
                "coordinates": [
                    [
                        80.178959,
                        13.032227
                    ],
                    [
                        80.178541,
                        13.032496
                    ],
                    [
                        80.178414,
                        13.032755
                    ]
                ]
            }
        },
        {
            "type": "Feature",
            "properties": {},
            "geometry": {
                "type": "LineString",
                "coordinates": [
                    [
                        80.179276,
                        13.032128
                    ],
                    [
                        80.179273,
                        13.032202
                    ],
                    [
                        80.178959,
                        13.03223
                    ]
                ]
            }
        },
        {
            "type": "Feature",
            "properties": {},
            "geometry": {
                "type": "LineString",
                "coordinates": [
                    [
                        80.17908,
                        13.032221
                    ],
                    [
                        80.179089,
                        13.032833
                    ]
                ]
            }
        },
        {
            "type": "Feature",
            "properties": {},
            "geometry": {
                "type": "LineString",
                "coordinates": [
                    [
                        80.180091,
                        13.032865
                    ],
                    [
                        80.18009,
                        13.032806
                    ]
                ]
            }
        },
        {
            "type": "Feature",
            "properties": {},
            "geometry": {
                "type": "LineString",
                "coordinates": [
                    [
                        80.178955,
                        13.032232
                    ],
                    [
                        80.178956,
                        13.032221
                    ]
                ]
            }
        },
        {
            "type": "Feature",
            "properties": {},
            "geometry": {
                "type": "LineString",
                "coordinates": [
                    [
                        80.17784,
                        13.032433
                    ],
                    [
                        80.177656,
                        13.032401
                    ]
                ]
            }
        },
        {
            "type": "Feature",
            "properties": {},
            "geometry": {
                "type": "LineString",
                "coordinates": [
                    [
                        80.178144,
                        13.032388
                    ],
                    [
                        80.178122,
                        13.032277
                    ]
                ]
            }
        },
        {
            "type": "Feature",
            "properties": {},
            "geometry": {
                "type": "LineString",
                "coordinates": [
                    [
                        80.179705,
                        13.032388
                    ],
                    [
                        80.179773,
                        13.032397
                    ],
                    [
                        80.179773,
                        13.032518
                    ],
                    [
                        80.179835,
                        13.032518
                    ]
                ]
            }
        }
    ]
}